[{"OBJECT_NAME":"STARLINK-3111","OBJECT_ID":"2021-104L","EPOCH":"2026-03-09T16:54:34.593120","MEAN_MOTION":15.08841323,"ECCENTRICITY":0.00011561,"INCLINATION":53.2168,"RA_OF_ASC_NODE":229.0547,"ARG_OF_PERICENTER":82.8468,"MEAN_ANOMALY":277.2655,"EPHEMERIS_TYPE":0,"CLASSIFICATION_TYPE":"U","NORAD_CAT_ID":49418,"ELEMENT_SET_NO":999,"REV_AT_EPOCH":23862,"BSTAR":-4.366709e-6,"MEAN_MOTION_DOT":-3.57e-6,"MEAN_MOTION_DDOT":0},{"OBJECT_NAME":"FREGAT DEB","OBJECT_ID":"2011-037BR","EPOCH":"2026-03-08T16:41:19.114368","MEAN_MOTION":11.55431875,"ECCENTRICITY":0.16348363,"INCLINATION":51.442,"RA_OF_ASC_NODE":302.7911,"ARG_OF_PERICENTER":221.4876,"MEAN_ANOMALY":124.9869,"EPHEMERIS_TYPE":0,"CLASSIFICATION_TYPE":"U","NORAD_CAT_ID":45831,"ELEMENT_SET_NO":999,"REV_AT_EPOCH":24228,"BSTAR":0.0010461944,"MEAN_MOTION_DOT":1.975e-5,"MEAN_MOTION_DDOT":0}]
